{"type": "FeatureCollection", "features": [ {"type": "Feature", "properties": {"norad_id": 44622, "name": "GAOFEN-10R", "group": "resource", "lat": -77.25031719144886, "lon": -35.12766933808684, "alt_km": 632.6316944941154, "timestamp": "2025-12-04T19:33:59.289066+00:00", "meta": {"OBJECT_NAME": "GAOFEN-10R", "OBJECT_ID": "2019-066A", "EPOCH": "2025-12-04T08:35:24.135936", "MEAN_MOTION": 14.82746176, "ECCENTRICITY": 0.00082506, "INCLINATION": 98.0265, "RA_OF_ASC_NODE": 285.8322, "ARG_OF_PERICENTER": 64.9461, "MEAN_ANOMALY": 295.2607, "EPHEMERIS_TYPE": 0, "CLASSIFICATION_TYPE": "U", "NORAD_CAT_ID": 44622, "ELEMENT_SET_NO": 999, "REV_AT_EPOCH": 33350, "BSTAR": 0.00050604469, "MEAN_MOTION_DOT": 4.036e-05, "MEAN_MOTION_DDOT": 0}, "tle": {"line1": "1 44622U 19066A   25338.35791824  .00004036  00000+0  50604-3 0  9990", "line2": "2 44622  98.0265 285.8322 0008250  64.9461 295.2607 14.82746176333506"}}, "geometry": {"type": "Point", "coordinates": [-35.12766933808684, -77.25031719144886]}}, {"type": "Feature", "properties": {"norad_id": 44804, "name": "CARTOSAT-3", "group": "resource", "lat": 55.7442995911926, "lon": -130.4078389988237, "alt_km": 493.41137495363546, "timestamp": "2025-12-04T19:33:59.289075+00:00", "meta": {"OBJECT_NAME": "CARTOSAT-3", "OBJECT_ID": "2019-081A", "EPOCH": "2025-12-04T07:57:38.085120", "MEAN_MOTION": 15.19255431, "ECCENTRICITY": 0.0013896, "INCLINATION": 97.4601, "RA_OF_ASC_NODE": 38.0211, "ARG_OF_PERICENTER": 113.6726, "MEAN_ANOMALY": 246.5969, "EPHEMERIS_TYPE": 0, "CLASSIFICATION_TYPE": "U", "NORAD_CAT_ID": 44804, "ELEMENT_SET_NO": 999, "REV_AT_EPOCH": 33388, "BSTAR": 0.00034728, "MEAN_MOTION_DOT": 7.272e-05, "MEAN_MOTION_DDOT": 0}, "tle": {"line1": "1 44804U 19081A   25338.33169080  .00007272  00000+0  34728-3 0  9994", "line2": "2 44804  97.4601  38.0211 0013896 113.6726 246.5969 15.19255431333889"}}, "geometry": {"type": "Point", "coordinates": [-130.4078389988237, 55.7442995911926]}}, {"type": "Feature", "properties": {"norad_id": 44819, "name": "GAOFEN-12 01", "group": "resource", "lat": -66.37463058942652, "lon": 147.0101738812146, "alt_km": 633.9072541173155, "timestamp": "2025-12-04T19:33:59.289084+00:00", "meta": {"OBJECT_NAME": "GAOFEN-12 01", "OBJECT_ID": "2019-082A", "EPOCH": "2025-12-04T07:05:53.208672", "MEAN_MOTION": 14.80642396, "ECCENTRICITY": 0.00012381, "INCLINATION": 97.8128, "RA_OF_ASC_NODE": 344.7984, "ARG_OF_PERICENTER": 292.2965, "MEAN_ANOMALY": 67.8116, "EPHEMERIS_TYPE": 0, "CLASSIFICATION_TYPE": "U", "NORAD_CAT_ID": 44819, "ELEMENT_SET_NO": 999, "REV_AT_EPOCH": 32525, "BSTAR": 0.00014179471, "MEAN_MOTION_DOT": 1.038e-05, "MEAN_MOTION_DDOT": 0}, "tle": {"line1": "1 44819U 19082A   25338.29575473  .00001038  00000+0  14179-3 0  9995", "line2": "2 44819  97.8128 344.7984 0001238 292.2965  67.8116 14.80642396325250"}}, "geometry": {"type": "Point", "coordinates": [147.0101738812146, -66.37463058942652]}}, {"type": "Feature", "properties": {"norad_id": 44873, "name": "CSG-1", "group": "resource", "lat": -43.97537081570323, "lon": 167.93865783636303, "alt_km": 629.9125969385259, "timestamp": "2025-12-04T19:33:59.289093+00:00", "meta": {"OBJECT_NAME": "CSG-1", "OBJECT_ID": "2019-092A", "EPOCH": "2025-12-04T08:25:30.319968", "MEAN_MOTION": 14.82146267, "ECCENTRICITY": 0.00014647, "INCLINATION": 97.8806, "RA_OF_ASC_NODE": 159.8015, "ARG_OF_PERICENTER": 86.5499, "MEAN_ANOMALY": 273.5882, "EPHEMERIS_TYPE": 0, "CLASSIFICATION_TYPE": "U", "NORAD_CAT_ID": 44873, "ELEMENT_SET_NO": 999, "REV_AT_EPOCH": 32261, "BSTAR": 0.00016441682, "MEAN_MOTION_DOT": 1.257e-05, "MEAN_MOTION_DDOT": 0}, "tle": {"line1": "1 44873U 19092A   25338.35104537  .00001257  00000+0  16442-3 0  9990", "line2": "2 44873  97.8806 159.8015 0001464  86.5499 273.5882 14.82146267322611"}}, "geometry": {"type": "Point", "coordinates": [167.93865783636303, -43.97537081570323]}}, {"type": "Feature", "properties": {"norad_id": 46277, "name": "NEMO-HD", "group": "resource", "lat": -78.6814748553274, "lon": 178.69705069285905, "alt_km": 454.7430026832526, "timestamp": "2025-12-04T19:33:59.289101+00:00", "meta": {"OBJECT_NAME": "NEMO-HD", "OBJECT_ID": "2020-061F", "EPOCH": "2025-12-04T07:31:11.196192", "MEAN_MOTION": 15.40064103, "ECCENTRICITY": 0.00023231, "INCLINATION": 97.2229, "RA_OF_ASC_NODE": 37.5202, "ARG_OF_PERICENTER": 66.7237, "MEAN_ANOMALY": 293.4254, "EPHEMERIS_TYPE": 0, "CLASSIFICATION_TYPE": "U", "NORAD_CAT_ID": 46277, "ELEMENT_SET_NO": 999, "REV_AT_EPOCH": 29194, "BSTAR": 0.00054319833, "MEAN_MOTION_DOT": 0.00021672, "MEAN_MOTION_DDOT": 0}, "tle": {"line1": "1 46277U 20061F   25338.31332403  .00021672  00000+0  54320-3 0  9999", "line2": "2 46277  97.2229  37.5202 0002323  66.7237 293.4254 15.40064103291947"}}, "geometry": {"type": "Point", "coordinates": [178.69705069285905, -78.6814748553274]}}, {"type": "Feature", "properties": {"norad_id": 46984, "name": "SENTINEL-6A", "group": "resource", "lat": -64.06228969995985, "lon": 112.67420393149987, "alt_km": 1338.2156029060625, "timestamp": "2025-12-04T19:33:59.289110+00:00", "meta": {"OBJECT_NAME": "SENTINEL-6A", "OBJECT_ID": "2020-086A", "EPOCH": "2025-12-03T23:22:11.269056", "MEAN_MOTION": 12.80930164, "ECCENTRICITY": 0.00077367, "INCLINATION": 66.039, "RA_OF_ASC_NODE": 180.5154, "ARG_OF_PERICENTER": 269.1652, "MEAN_ANOMALY": 90.8477, "EPHEMERIS_TYPE": 0, "CLASSIFICATION_TYPE": "U", "NORAD_CAT_ID": 46984, "ELEMENT_SET_NO": 999, "REV_AT_EPOCH": 23532, "BSTAR": 0.00017982436, "MEAN_MOTION_DOT": -2e-07, "MEAN_MOTION_DDOT": 0}, "tle": {"line1": "1 46984U 20086A   25337.97374154 -.00000020  00000+0  17982-3 0  9999", "line2": "2 46984  66.0390 180.5154 0007736 269.1652  90.8477 12.80930164235329"}}, "geometry": {"type": "Point", "coordinates": [112.67420393149987, -64.06228969995985]}}, {"type": "Feature", "properties": {"norad_id": 48079, "name": "GAOFEN-12 02", "group": "resource", "lat": -75.88020298096009, "lon": 118.94211065709675, "alt_km": 636.3871297449668, "timestamp": "2025-12-04T19:33:59.289119+00:00", "meta": {"OBJECT_NAME": "GAOFEN-12 02", "OBJECT_ID": "2021-026A", "EPOCH": "2025-12-04T07:03:01.461888", "MEAN_MOTION": 14.80659683, "ECCENTRICITY": 0.00032946, "INCLINATION": 97.9849, "RA_OF_ASC_NODE": 332.3412, "ARG_OF_PERICENTER": 117.8751, "MEAN_ANOMALY": 242.2795, "EPHEMERIS_TYPE": 0, "CLASSIFICATION_TYPE": "U", "NORAD_CAT_ID": 48079, "ELEMENT_SET_NO": 999, "REV_AT_EPOCH": 25292, "BSTAR": 0.0001427148, "MEAN_MOTION_DOT": 1.044e-05, "MEAN_MOTION_DDOT": 0}, "tle": {"line1": "1 48079U 21026A   25338.29376692  .00001044  00000+0  14271-3 0  9990", "line2": "2 48079  97.9849 332.3412 0003294 117.8751 242.2795 14.80659683252923"}}, "geometry": {"type": "Point", "coordinates": [118.94211065709675, -75.88020298096009]}}, {"type": "Feature", "properties": {"norad_id": 48268, "name": "PLEIADES NEO 3", "group": "resource", "lat": -62.33142747315029, "lon": 66.71617286284041, "alt_km": 632.0159093988395, "timestamp": "2025-12-04T19:33:59.289128+00:00", "meta": {"OBJECT_NAME": "PLEIADES NEO 3", "OBJECT_ID": "2021-034A", "EPOCH": "2025-12-04T08:30:24.331392", "MEAN_MOTION": 14.81673589, "ECCENTRICITY": 0.00012454, "INCLINATION": 97.8946, "RA_OF_ASC_NODE": 50.9159, "ARG_OF_PERICENTER": 91.5378, "MEAN_ANOMALY": 268.5978, "EPHEMERIS_TYPE": 0, "CLASSIFICATION_TYPE": "U", "NORAD_CAT_ID": 48268, "ELEMENT_SET_NO": 999, "REV_AT_EPOCH": 24880, "BSTAR": -1.924812e-06, "MEAN_MOTION_DOT": -6.7e-07, "MEAN_MOTION_DDOT": 0}, "tle": {"line1": "1 48268U 21034A   25338.35444828 -.00000067  00000+0 -19248-5 0  9990", "line2": "2 48268  97.8946  50.9159 0001245  91.5378 268.5978 14.81673589248806"}}, "geometry": {"type": "Point", "coordinates": [66.71617286284041, -62.33142747315029]}}, {"type": "Feature", "properties": {"norad_id": 49070, "name": "PLEIADES NEO 4", "group": "resource", "lat": 62.15710483845802, "lon": -113.40273739671858, "alt_km": 617.1612222095719, "timestamp": "2025-12-04T19:33:59.289137+00:00", "meta": {"OBJECT_NAME": "PLEIADES NEO 4", "OBJECT_ID": "2021-073E", "EPOCH": "2025-12-04T07:41:45.906144", "MEAN_MOTION": 14.81672732, "ECCENTRICITY": 0.0001281, "INCLINATION": 97.895, "RA_OF_ASC_NODE": 50.8785, "ARG_OF_PERICENTER": 98.0398, "MEAN_ANOMALY": 262.096, "EPHEMERIS_TYPE": 0, "CLASSIFICATION_TYPE": "U", "NORAD_CAT_ID": 49070, "ELEMENT_SET_NO": 999, "REV_AT_EPOCH": 23251, "BSTAR": 3.2661e-06, "MEAN_MOTION_DOT": -2.6e-07, "MEAN_MOTION_DDOT": 0}, "tle": {"line1": "1 49070U 21073E   25338.32067021 -.00000026  00000+0  32661-5 0  9996", "line2": "2 49070  97.8950  50.8785 0001281  98.0398 262.0960 14.81672732232511"}}, "geometry": {"type": "Point", "coordinates": [-113.40273739671858, 62.15710483845802]}}, {"type": "Feature", "properties": {"norad_id": 49260, "name": "LANDSAT 9", "group": "resource", "lat": 65.81151820680488, "lon": -114.20937766932782, "alt_km": 695.3710940490055, "timestamp": "2025-12-04T19:33:59.289146+00:00", "meta": {"OBJECT_NAME": "LANDSAT 9", "OBJECT_ID": "2021-088A", "EPOCH": "2025-12-04T04:13:05.506752", "MEAN_MOTION": 14.57116853, "ECCENTRICITY": 0.00010611, "INCLINATION": 98.2104, "RA_OF_ASC_NODE": 46.4104, "ARG_OF_PERICENTER": 92.6691, "MEAN_ANOMALY": 267.4629, "EPHEMERIS_TYPE": 0, "CLASSIFICATION_TYPE": "U", "NORAD_CAT_ID": 49260, "ELEMENT_SET_NO": 999, "REV_AT_EPOCH": 22260, "BSTAR": 0.00021180906, "MEAN_MOTION_DOT": 9.09e-06, "MEAN_MOTION_DDOT": 0}, "tle": {"line1": "1 49260U 21088A   25338.17575818  .00000909  00000+0  21181-3 0  9996", "line2": "2 49260  98.2104  46.4104 0001061  92.6691 267.4629 14.57116853222606"}}, "geometry": {"type": "Point", "coordinates": [-114.20937766932782, 65.81151820680488]}}]}